*******************************************************************************
 Revised: Feb 13, 2015              Venus Express Spacecraft               -248
                        http://www.esa.int/SPECIALS/Venus_Express/
                 http://sci.esa.int/science-e/www/area/index.cfm?fareaid=64

 NOTE: Full contact with the spacecraft was lost on Nov 28, 2014; telemetry 
  and command links were partly re-established, but were unstable and only 
  limited information could be retrieved.

  It is thought the spacecraft exhausted its remaining propellant about halfway
  through a set of maneuvers Nov 23-28 intended to raise periapse and prolong
  the mission into 2015. The nominal mission length of 500 days had already
  been extended to eight years.

  No further trajectory updates are expected.

 Venus Express
 -------------
   Launch mass    : 1270 kg
   Launched       : 2005-Nov-9 03:33:34 UT 
                    (from Baikonur Cosmodrome, launch pad #6)
   Venus arrival  : 2006-Apr-11 (153 day cruise)
   Nominal mission: 500 days in 24-hour elliptical, quasi-polar Venus orbit

 Venus Express is ESA's first mission to Venus. 

 Venus Express was designed to be the first space probe to perform a global 
  investigation of the Venusian atmosphere and plasma environment.

 SPACECRAFT TRAJECTORY: From ESA

   Name                             Start (CT)           Stop (CT)
   ------------------------------   -----------------    -----------------
   VEX_051115                       2005 Nov 09 05:06    2006 Apr 09 21:15
   Concatenated ORVV trajectories   2006 Apr 09 21:15    2014 Nov 30 13:53
   ORVV__141201000000_00569         2014 Nov 30 13:53    2014 Dec 31 23:40

  Reconstructed trajectory based on tracking data to 2014-Nov-28. 
  Predicted trajectory thereafter.
*******************************************************************************


*******************************************************************************
Ephemeris / WWW_USER Sun Apr 19 03:31:09 2026 Pasadena, USA      / Horizons    
*******************************************************************************
Target body name: Venus Express (spacecraft) (-248) {source: VEX_merged}
Center body name: Earth (399)                     {source: DE441}
Center-site name: Cebreros (35-m, ESTrack DSA-2 CEBR)
*******************************************************************************
Start time      : A.D. 2014-Jan-01 00:00:00.0000 UT      
Stop  time      : A.D. 2014-Dec-31 00:00:00.0000 UT      
Step-size       : 1440 minutes
*******************************************************************************
Target pole/equ : undefined
Target radii    : undefined                                                    
Center geodetic : 355.6324523,40.4526907,.794132  {E-lon(deg),Lat(deg),Alt(km)}
Center cylindric: 355.6324523,4860.84954,4116.87901 {E-lon(deg),Dxy(km),Dz(km)}
Center pole/equ : ITRF93                          {East-longitude positive}
Center radii    : 6378.137, 6378.137, 6356.752 km {Equator_a, b, pole_c}       
Target primary  : Earth
Vis. interferer : MOON (R_eq= 1737.400) km        {source: DE441}
Rel. light bend : Sun                             {source: DE441}
Rel. lght bnd GM: 1.3271E+11 km^3/s^2                                          
Atmos refraction: NO (AIRLESS)
RA format       : HMS
Time format     : CAL 
Calendar mode   : Mixed Julian/Gregorian
EOP file        : eop.260417.p260714                                           
EOP coverage    : DATA-BASED 1962-JAN-20 TO 2026-APR-17. PREDICTS-> 2026-JUL-13
Units conversion: 1 au= 149597870.700 km, c= 299792.458 km/s, 1 day= 86400.0 s 
Table cut-offs 1: Elevation (-90.0deg=NO ),Airmass (>38.000=NO), Daylight (NO )
Table cut-offs 2: Solar elongation (  0.0,180.0=NO ),Local Hour Angle( 0.0=NO )
Table cut-offs 3: RA/DEC angular rate (     0.0=NO )                           
****************************************************************************************************************************************************************************************************************************
 Date__(UT)__HR:MN     R.A.__(a-apparent)__DEC  hEcl-Lon hEcl-Lat                r        rdot             delta      deldot     S-O-T /r     ObsEcLon    ObsEcLat  Sky_motion  Sky_mot_PA  RelVel-ANG  Lun_Sky_Brt  sky_SNR
****************************************************************************************************************************************************************************************************************************
$$SOE
 2014-May-01 00:00     23 53 31.14 -02 06 26.8  286.9962  -1.7351   0.727691720723  -0.6301714  0.98155622894461  12.5820669   42.8932 /L  357.6754179  -1.2894199   2.9035801   64.228282   20.059439         n.a.     n.a.
 2014-May-02 00:00     23 57 45.18 -01 42 09.2  288.5775  -1.8153   0.727746267790  -0.6360400  0.98906123286776  12.5612312   42.7337 /L  358.8073884  -1.3387080   2.9076142   64.158696   19.863360         n.a.     n.a.
 2014-May-03 00:00     00 01 59.37 -01 17 43.1  290.1587  -1.8940   0.727797398716  -0.6413993  0.99654792103872  12.5401572   42.5719 /L  359.9410983  -1.3862654   2.9115096   64.096792   19.670768         n.a.     n.a.
 2014-May-04 00:00     00 06 13.73 -00 53 09.2  291.7399  -1.9714   0.727845078582  -0.6462685  1.00401610729365  12.5188174   42.4078 /L    1.0764951  -1.4320893   2.9152794   64.042713   19.481465         n.a.     n.a.
 2014-May-05 00:00     00 10 28.27 -00 28 28.0  293.3210  -2.0472   0.727889269703  -0.6506368  1.01146559343200  12.4971812   42.2417 /L    2.2135311  -1.4761776   2.9189329   63.996512   19.295282         n.a.     n.a.
 2014-May-06 00:00  m  00 14 43.01 -00 03 40.1  294.9020  -2.1215   0.727929939379  -0.6545077  1.01889616374052  12.4752105   42.0733 /L    3.3521631  -1.5185292   2.9224791   63.958280   19.112042         n.a.     n.a.
 2014-May-07 00:00  m  00 18 57.97 +00 21 13.7  296.4831  -2.1941   0.727967056850  -0.6578792  1.02630758639638  12.4528694   41.9029 /L    4.4923522  -1.5591443   2.9259258   63.928082   18.931588         n.a.     n.a.
 2014-May-08 00:00  m  00 23 13.18 +00 46 12.9  298.0641  -2.2651   0.728000594413  -0.6607529  1.03369961174009  12.4301187   41.7304 /L    5.6340639  -1.5980239   2.9292806   63.905992   18.753762         n.a.     n.a.
 2014-May-09 00:00  m  00 27 28.65 +01 11 16.9  299.6452  -2.3344   0.728030527000  -0.6631313  1.04107197202340  12.4069172   41.5559 /L    6.7772672  -1.6351700   2.9325506   63.892084   18.578409         n.a.     n.a.
 2014-May-10 00:00  m  00 31 44.40 +01 36 24.9  301.2263  -2.4019   0.728056830630  -0.6650124  1.04842437831155  12.3832195   41.3793 /L    7.9219353  -1.6705858   2.9357429   63.886403   18.405376         n.a.     n.a.
 2014-May-11 00:00  m  00 36 00.48 +02 01 36.5  302.8074  -2.4676   0.728079488611  -0.6664077  1.05575651665388  12.3589642   41.2009 /L    9.0680452  -1.7042754   2.9388651   63.889065   18.234488         n.a.     n.a.
 2014-May-12 00:00  m  00 40 16.89 +02 26 50.9  304.3886  -2.5315   0.728098483026  -0.6673213  1.06306803838898  12.3340788   41.0204 /L   10.2155774  -1.7362439   2.9419240   63.900136   18.065565         n.a.     n.a.
 2014-May-13 00:00  m  00 44 33.67 +02 52 07.5  305.9699  -2.5934   0.728113800104  -0.6677584  1.07035855180027  12.3084676   40.8381 /L   11.3645154  -1.7664975   2.9449256   63.919694   17.898403         n.a.     n.a.
 2014-May-14 00:00  m  00 48 50.84 +03 17 25.7  307.5513  -2.6534   0.728125428655  -0.6677273  1.07762760885424  12.2820154   40.6539 /L   12.5148440  -1.7950432   2.9478746   63.947803   17.732789         n.a.     n.a.
 2014-May-15 00:00  m  00 53 08.44 +03 42 44.9  309.1328  -2.7113   0.728133359755  -0.6672324  1.08487469259127  12.2545923   40.4679 /L   13.6665471  -1.8218891   2.9507726   63.984521   17.568510         n.a.     n.a.
 2014-May-16 00:00  m  00 57 26.49 +04 08 04.4  310.7144  -2.7672   0.728137587677  -0.6662763  1.09209921507139  12.2260626   40.2801 /L   14.8196061  -1.8470438   2.9536186   64.029872   17.405367         n.a.     n.a.
 2014-May-17 00:00  m  01 01 45.02 +04 33 23.6  312.2962  -2.8210   0.728138104867  -0.6648444  1.09930051527348  12.1963053   40.0905 /L   15.9739975  -1.8705166   2.9564065   64.083890   17.243214         n.a.     n.a.
 2014-May-18 00:00  m  01 06 04.05 +04 58 41.9  313.8781  -2.8727   0.728134918853  -0.6629817  1.10647787154261  12.1652218   39.8993 /L   17.1296927  -1.8923175   2.9591330   64.146564   17.081923         n.a.     n.a.
 2014-May-19 00:00  m  01 10 23.61 +05 23 58.4  315.4602  -2.9222   0.728128026902  -0.6606487  1.11363052630525  12.1327578   39.7064 /L   18.2866596  -1.9124560   2.9617858   64.217785   16.921474         n.a.     n.a.
 2014-May-20 00:00  m  01 14 43.71 +05 49 12.6  317.0424  -2.9695   0.728117433395  -0.6578361  1.12075770747080  12.0989021   39.5119 /L   19.4448641  -1.9309422   2.9643553   64.297468   16.761891         n.a.     n.a.
 2014-May-21 00:00     01 19 04.40 +06 14 23.9  318.6249  -3.0145   0.728103119513  -0.6540505  1.12785865570274  12.0636132   39.3158 /L   20.6042731  -1.9477781   2.9667921   64.382994   16.603363         n.a.     n.a.
 2014-May-22 00:00     01 23 25.68 +06 39 31.4  320.2075  -3.0573   0.728085107006  -0.6494930  1.13493265038310  12.0269572   39.1182 /L   21.7648527  -1.9629786   2.9691053   64.475685   16.445906         n.a.     n.a.
 2014-May-23 00:00     01 27 47.58 +07 04 34.6  321.7904  -3.0977   0.728063410436  -0.6441847  1.14197902339673  11.9889920   38.9192 /L   22.9265706  -1.9765533   2.9712916   64.575303   16.289589         n.a.     n.a.
 2014-May-24 00:00     01 32 10.13 +07 29 32.7  323.3734  -3.1357   0.728038048899  -0.6381928  1.14899717363665  11.9498005   38.7187 /L   24.0893950  -1.9885134   2.9733536   64.682071   16.134478         n.a.     n.a.
